{
  "type": "FeatureCollection",
  "features": [
    {
      "type": "Feature",
      "properties": {
        "norad_id": 43001,
        "name": "BEIDOU-3 M1 (C19)",
        "group": "beidou",
        "lat": NaN,
        "lon": NaN,
        "alt_km": NaN,
        "timestamp": "2025-12-01T03:12:44.532278+00:00",
        "meta": {
          "OBJECT_NAME": "BEIDOU-3 M1 (C19)",
          "OBJECT_ID": "2017-069A",
          "EPOCH": "2025-11-30T11:01:49.166976",
          "MEAN_MOTION": 1.86230859,
          "ECCENTRICITY": 0.00086901,
          "INCLINATION": 56.5161,
          "RA_OF_ASC_NODE": 69.6405,
          "ARG_OF_PERICENTER": 303.5198,
          "MEAN_ANOMALY": 56.4027,
          "EPHEMERIS_TYPE": 0,
          "CLASSIFICATION_TYPE": "U",
          "NORAD_CAT_ID": 43001,
          "ELEMENT_SET_NO": 999,
          "REV_AT_EPOCH": 5490,
          "BSTAR": 0,
          "MEAN_MOTION_DOT": -3.3e-07,
          "MEAN_MOTION_DDOT": 0
        }
      },
      "geometry": {
        "type": "Point",
        "coordinates": [
          NaN,
          NaN
        ]
      }
    },
    {
      "type": "Feature",
      "properties": {
        "norad_id": 43002,
        "name": "BEIDOU-3 M2 (C20)",
        "group": "beidou",
        "lat": NaN,
        "lon": NaN,
        "alt_km": NaN,
        "timestamp": "2025-12-01T03:12:44.532284+00:00",
        "meta": {
          "OBJECT_NAME": "BEIDOU-3 M2 (C20)",
          "OBJECT_ID": "2017-069B",
          "EPOCH": "2025-11-29T20:39:49.777920",
          "MEAN_MOTION": 1.86230637,
          "ECCENTRICITY": 0.00060867,
          "INCLINATION": 56.5152,
          "RA_OF_ASC_NODE": 69.6958,
          "ARG_OF_PERICENTER": 333.0369,
          "MEAN_ANOMALY": 26.9387,
          "EPHEMERIS_TYPE": 0,
          "CLASSIFICATION_TYPE": "U",
          "NORAD_CAT_ID": 43002,
          "ELEMENT_SET_NO": 999,
          "REV_AT_EPOCH": 5488,
          "BSTAR": 0,
          "MEAN_MOTION_DOT": -2.9e-07,
          "MEAN_MOTION_DDOT": 0
        }
      },
      "geometry": {
        "type": "Point",
        "coordinates": [
          NaN,
          NaN
        ]
      }
    },
    {
      "type": "Feature",
      "properties": {
        "norad_id": 43107,
        "name": "BEIDOU-3 M7 (C27)",
        "group": "beidou",
        "lat": NaN,
        "lon": NaN,
        "alt_km": NaN,
        "timestamp": "2025-12-01T03:12:44.532294+00:00",
        "meta": {
          "OBJECT_NAME": "BEIDOU-3 M7 (C27)",
          "OBJECT_ID": "2018-003A",
          "EPOCH": "2025-11-30T03:23:17.297952",
          "MEAN_MOTION": 1.86232295,
          "ECCENTRICITY": 0.00025503,
          "INCLINATION": 54.508,
          "RA_OF_ASC_NODE": 309.2532,
          "ARG_OF_PERICENTER": 71.4295,
          "MEAN_ANOMALY": 288.5965,
          "EPHEMERIS_TYPE": 0,
          "CLASSIFICATION_TYPE": "U",
          "NORAD_CAT_ID": 43107,
          "ELEMENT_SET_NO": 999,
          "REV_AT_EPOCH": 5364,
          "BSTAR": 0,
          "MEAN_MOTION_DOT": -5.1e-07,
          "MEAN_MOTION_DDOT": 0
        }
      },
      "geometry": {
        "type": "Point",
        "coordinates": [
          NaN,
          NaN
        ]
      }
    },
    {
      "type": "Feature",
      "properties": {
        "norad_id": 43108,
        "name": "BEIDOU-3 M8 (C28)",
        "group": "beidou",
        "lat": NaN,
        "lon": NaN,
        "alt_km": NaN,
        "timestamp": "2025-12-01T03:12:44.532300+00:00",
        "meta": {
          "OBJECT_NAME": "BEIDOU-3 M8 (C28)",
          "OBJECT_ID": "2018-003B",
          "EPOCH": "2025-11-30T02:03:48.119904",
          "MEAN_MOTION": 1.86230785,
          "ECCENTRICITY": 0.00048391,
          "INCLINATION": 54.5009,
          "RA_OF_ASC_NODE": 309.238,
          "ARG_OF_PERICENTER": 273.2994,
          "MEAN_ANOMALY": 86.6436,
          "EPHEMERIS_TYPE": 0,
          "CLASSIFICATION_TYPE": "U",
          "NORAD_CAT_ID": 43108,
          "ELEMENT_SET_NO": 999,
          "REV_AT_EPOCH": 5365,
          "BSTAR": 0,
          "MEAN_MOTION_DOT": -5.1e-07,
          "MEAN_MOTION_DDOT": 0
        }
      },
      "geometry": {
        "type": "Point",
        "coordinates": [
          NaN,
          NaN
        ]
      }
    },
    {
      "type": "Feature",
      "properties": {
        "norad_id": 43207,
        "name": "BEIDOU-3 M4 (C22)",
        "group": "beidou",
        "lat": NaN,
        "lon": NaN,
        "alt_km": NaN,
        "timestamp": "2025-12-01T03:12:44.532308+00:00",
        "meta": {
          "OBJECT_NAME": "BEIDOU-3 M4 (C22)",
          "OBJECT_ID": "2018-018A",
          "EPOCH": "2025-11-29T23:46:52.646304",
          "MEAN_MOTION": 1.86230785,
          "ECCENTRICITY": 0.00040324,
          "INCLINATION": 56.4748,
          "RA_OF_ASC_NODE": 69.7269,
          "ARG_OF_PERICENTER": 16.3017,
          "MEAN_ANOMALY": 343.7179,
          "EPHEMERIS_TYPE": 0,
          "CLASSIFICATION_TYPE": "U",
          "NORAD_CAT_ID": 43207,
          "ELEMENT_SET_NO": 999,
          "REV_AT_EPOCH": 5303,
          "BSTAR": 0,
          "MEAN_MOTION_DOT": -2.9e-07,
          "MEAN_MOTION_DDOT": 0
        }
      },
      "geometry": {
        "type": "Point",
        "coordinates": [
          NaN,
          NaN
        ]
      }
    },
    {
      "type": "Feature",
      "properties": {
        "norad_id": 43208,
        "name": "BEIDOU-3 M3 (C21)",
        "group": "beidou",
        "lat": NaN,
        "lon": NaN,
        "alt_km": NaN,
        "timestamp": "2025-12-01T03:12:44.532314+00:00",
        "meta": {
          "OBJECT_NAME": "BEIDOU-3 M3 (C21)",
          "OBJECT_ID": "2018-018B",
          "EPOCH": "2025-11-28T23:36:15.423840",
          "MEAN_MOTION": 1.86231026,
          "ECCENTRICITY": 0.00061008,
          "INCLINATION": 56.4732,
          "RA_OF_ASC_NODE": 69.7644,
          "ARG_OF_PERICENTER": 317.7997,
          "MEAN_ANOMALY": 42.163,
          "EPHEMERIS_TYPE": 0,
          "CLASSIFICATION_TYPE": "U",
          "NORAD_CAT_ID": 43208,
          "ELEMENT_SET_NO": 999,
          "REV_AT_EPOCH": 5301,
          "BSTAR": 0,
          "MEAN_MOTION_DOT": -2.2e-07,
          "MEAN_MOTION_DDOT": 0
        }
      },
      "geometry": {
        "type": "Point",
        "coordinates": [
          NaN,
          NaN
        ]
      }
    },
    {
      "type": "Feature",
      "properties": {
        "norad_id": 43245,
        "name": "BEIDOU-3 M9 (C29)",
        "group": "beidou",
        "lat": NaN,
        "lon": NaN,
        "alt_km": NaN,
        "timestamp": "2025-12-01T03:12:44.532321+00:00",
        "meta": {
          "OBJECT_NAME": "BEIDOU-3 M9 (C29)",
          "OBJECT_ID": "2018-029A",
          "EPOCH": "2025-11-30T06:33:48.438720",
          "MEAN_MOTION": 1.86227965,
          "ECCENTRICITY": 0.00018222,
          "INCLINATION": 54.3776,
          "RA_OF_ASC_NODE": 306.9034,
          "ARG_OF_PERICENTER": 271.8321,
          "MEAN_ANOMALY": 88.1431,
          "EPHEMERIS_TYPE": 0,
          "CLASSIFICATION_TYPE": "U",
          "NORAD_CAT_ID": 43245,
          "ELEMENT_SET_NO": 999,
          "REV_AT_EPOCH": 5219,
          "BSTAR": 0,
          "MEAN_MOTION_DOT": -5.2e-07,
          "MEAN_MOTION_DDOT": 0
        }
      },
      "geometry": {
        "type": "Point",
        "coordinates": [
          NaN,
          NaN
        ]
      }
    },
    {
      "type": "Feature",
      "properties": {
        "norad_id": 43246,
        "name": "BEIDOU-3 M10 (C30)",
        "group": "beidou",
        "lat": NaN,
        "lon": NaN,
        "alt_km": NaN,
        "timestamp": "2025-12-01T03:12:44.532326+00:00",
        "meta": {
          "OBJECT_NAME": "BEIDOU-3 M10 (C30)",
          "OBJECT_ID": "2018-029B",
          "EPOCH": "2025-11-29T03:14:13.986240",
          "MEAN_MOTION": 1.86228967,
          "ECCENTRICITY": 0.00039142,
          "INCLINATION": 54.3758,
          "RA_OF_ASC_NODE": 306.9698,
          "ARG_OF_PERICENTER": 358.6776,
          "MEAN_ANOMALY": 1.3207,
          "EPHEMERIS_TYPE": 0,
          "CLASSIFICATION_TYPE": "U",
          "NORAD_CAT_ID": 43246,
          "ELEMENT_SET_NO": 999,
          "REV_AT_EPOCH": 5215,
          "BSTAR": 0,
          "MEAN_MOTION_DOT": -4.6e-07,
          "MEAN_MOTION_DDOT": 0
        }
      },
      "geometry": {
        "type": "Point",
        "coordinates": [
          NaN,
          NaN
        ]
      }
    }
  ]
}