BEIDOU-3 M1 (C19)       
1 43001U 17069A   25334.45959684 -.00000033  00000+0  00000+0 0  9993
2 43001  56.5161  69.6405 0008690 303.5198  56.4027  1.86230859 54900
BEIDOU-3 M2 (C20)       
1 43002U 17069B   25333.86099280 -.00000029  00000+0  00000+0 0  9990
2 43002  56.5152  69.6958 0006086 333.0369  26.9387  1.86230637 54881
BEIDOU-3 M7 (C27)       
1 43107U 18003A   25334.14117243 -.00000051  00000+0  00000+0 0  9992
2 43107  54.5080 309.2532 0002550  71.4295 288.5965  1.86232295 53642
BEIDOU-3 M8 (C28)       
1 43108U 18003B   25334.08597361 -.00000051  00000+0  00000+0 0  9999
2 43108  54.5009 309.2380 0004839 273.2994  86.6436  1.86230785 53658
BEIDOU-3 M4 (C22)       
1 43207U 18018A   25333.99088711 -.00000029  00000+0  00000+0 0  9993
2 43207  56.4748  69.7269 0004032  16.3017 343.7179  1.86230785 53033
BEIDOU-3 M3 (C21)       
1 43208U 18018B   25332.98351185 -.00000022  00000+0  00000+0 0  9993
2 43208  56.4732  69.7644 0006100 317.7997  42.1630  1.86231026 53016
BEIDOU-3 M9 (C29)       
1 43245U 18029A   25334.27347730 -.00000052  00000+0  00000+0 0  9994
2 43245  54.3776 306.9034 0001822 271.8321  88.1431  1.86227965 52192
BEIDOU-3 M10 (C30)      
1 43246U 18029B   25333.13488410 -.00000046  00000+0  00000+0 0  9993
2 43246  54.3758 306.9698 0003914 358.6776   1.3207  1.86228967 52158
